{"type":"FeatureCollection","features":[{"type":"Feature","properties":{"name":"Acre","sigla":"AC"},"geometry":{"type":"MultiPolygon","coordinates":[[[[-73.608178,-7.201942],[-72.663035,-7.622899],[-71.512459,-7.886919],[-70.57532,-8.09556],[-69.552806,-8.577996],[-68.620055,-9.047748],[-67.496119,-9.524192],[-66.619301,-9.893602],[-67.420645,-10.390903],[-68.212386,-10.904715],[-69.150105,-10.968491],[-70.093623,-10.988521],[-70.625187,-10.076511],[-71.81988,-10.000168],[-72.587212,-9.45574],[-73.14486,-8.693998],[-73.734102,-7.961368],[-73.608178,-7.201942]]]]}},{"type":"Feature","properties":{"name":"Alagoas","sigla":"AL"},"geometry":{"type":"MultiPolygon","coordinates":[[[[-35.465161,-8.825492],[-35.294219,-9.169636],[-35.542093,-9.463802],[-35.816514,-9.740422],[-36.042505,-10.064118],[-36.295139,-10.351772],[-36.668851,-10.267889],[-36.961125,-10.006034],[-37.302244,-9.825468],[-37.659925,-9.676847],[-37.998505,-9.497317],[-37.960161,-9.11723],[-37.600435,-8.975704],[-37.262006,-9.159601],[-36.943585,-9.381919],[-36.563472,-9.322357],[-36.24507,-9.09862],[-35.923241,-8.883173],[-35.539968,-8.821156],[-35.465161,-8.825492]],[[-35.290981,-9.148233],[-35.290186,-9.146987],[-35.290186,-9.146987],[-35.290981,-9.148233]]]]}},{"type":"Feature","properties":{"name":"Amazonas","sigla":"AM"},"geometry":{"type":"MultiPolygon","coordinates":[[[[-67.32553,2.030119],[-65.606055,1.004912],[-63.853535,1.978903],[-62.522432,0.485885],[-61.838778,-1.401412],[-60.257754,-0.173078],[-58.414244,-0.966722],[-56.720823,-2.048789],[-57.547571,-4.921233],[-58.477949,-6.699242],[-58.436896,-8.703034],[-60.746961,-8.797465],[-62.659356,-8.199256],[-64.515568,-8.9772],[-66.438545,-9.554001],[-68.620055,-9.047748],[-70.57532,-8.09556],[-72.658816,-7.624607],[-72.965905,-5.644713],[-71.369716,-4.435501],[-69.749813,-3.210499],[-69.430806,-1.232583],[-69.172254,0.763494],[-67.619139,2.024124],[-67.32553,2.030119]]]]}},{"type":"Feature","properties":{"name":"Amap\u00e1","sigla":"AP"},"geometry":{"type":"MultiPolygon","coordinates":[[[[-51.181678,4.008887],[-51.031422,3.157754],[-50.74578,2.350143],[-50.091295,1.791721],[-49.994967,0.928185],[-50.579469,0.270123],[-51.289131,-0.227749],[-51.689297,-0.997255],[-52.538185,-0.854477],[-52.959539,-0.062897],[-53.189795,0.768699],[-53.761986,1.408706],[-54.562901,1.776243],[-53.887741,2.304003],[-53.03984,2.173909],[-52.461784,2.816811],[-52.037843,3.56673],[-51.581322,4.291506],[-51.181678,4.008887]]]]}},{"type":"Feature","properties":{"name":"Bahia","sigla":"BA"},"geometry":{"type":"MultiPolygon","coordinates":[[[[-39.288197,-8.562901],[-37.875028,-9.978362],[-37.616376,-11.966302],[-38.907512,-13.493979],[-38.942158,-15.527769],[-39.192576,-17.51543],[-40.230254,-15.804283],[-42.128518,-15.131256],[-43.945881,-14.289506],[-45.788727,-15.113635],[-46.305715,-13.180681],[-46.45295,-11.155775],[-44.517547,-10.649619],[-42.845467,-9.549391],[-40.97871,-8.823013],[-39.288197,-8.562901]],[[-39.576153,-18.088199],[-39.573559,-18.080663],[-39.573559,-18.080663],[-39.576153,-18.088199]]]]}},{"type":"Feature","properties":{"name":"Cear\u00e1","sigla":"CE"},"geometry":{"type":"MultiPolygon","coordinates":[[[[-40.018043,-2.836985],[-39.344968,-3.179669],[-38.739268,-3.620639],[-38.150913,-4.096141],[-37.607327,-4.613094],[-37.835324,-5.335007],[-38.244118,-5.999075],[-38.648436,-6.625731],[-38.575701,-7.376179],[-39.246818,-7.704927],[-39.902914,-7.338533],[-40.431793,-6.81259],[-40.852743,-6.164817],[-40.942079,-5.419857],[-41.228272,-4.727894],[-41.243983,-3.979396],[-41.322109,-3.179438],[-40.652195,-2.84891],[-40.018043,-2.836985]]],[[[-40.024638,-2.834113],[-40.027137,-2.835738],[-40.027137,-2.835738],[-40.024638,-2.834113]]]]}},{"type":"Feature","properties":{"name":"Esp\u00edrito Santo","sigla":"ES"},"geometry":{"type":"MultiPolygon","coordinates":[[[[-40.723829,-20.841778],[-40.957184,-21.302959],[-41.464397,-21.203474],[-41.794065,-20.798467],[-41.779229,-20.282073],[-41.319556,-20.043766],[-41.072423,-19.589834],[-41.012201,-19.075313],[-41.026273,-18.527618],[-40.902196,-17.986994],[-40.388436,-17.926072],[-39.919896,-18.17259],[-39.745477,-18.699111],[-39.701175,-19.223629],[-39.930134,-19.698681],[-40.181974,-20.147701],[-40.417152,-20.618226],[-40.723829,-20.841778]],[[-40.526619,-20.655179],[-40.504742,-20.670503],[-40.504742,-20.670503],[-40.526619,-20.655179]],[[-40.536145,-20.685265],[-40.529711,-20.677003],[-40.529711,-20.677003],[-40.536145,-20.685265]]],[[[-40.474992,-20.660832],[-40.465894,-20.655379],[-40.465894,-20.655379],[-40.474992,-20.660832]]],[[[-40.724437,-20.846641],[-40.718565,-20.845484],[-40.718565,-20.845484],[-40.724437,-20.846641]]]]}},{"type":"Feature","properties":{"name":"Goi\u00e1s","sigla":"GO"},"geometry":{"type":"MultiPolygon","coordinates":[[[[-50.157762,-12.411952],[-48.601652,-13.059894],[-46.917197,-13.075473],[-45.996788,-14.48702],[-46.956607,-15.915563],[-47.502452,-17.516092],[-48.975125,-18.339505],[-50.522342,-19.076471],[-52.197101,-18.849639],[-53.24236,-17.52283],[-52.360391,-16.081898],[-51.108823,-14.929435],[-50.611694,-13.317368],[-50.157762,-12.411952]]]]}},{"type":"Feature","properties":{"name":"Maranh\u00e3o","sigla":"MA"},"geometry":{"type":"MultiPolygon","coordinates":[[[[-47.031021,-8.98549],[-47.749319,-7.191043],[-47.879311,-5.266561],[-47.015679,-3.546063],[-46.314103,-1.741353],[-44.433581,-2.167085],[-42.566773,-2.677192],[-42.874286,-4.581709],[-42.884722,-6.508533],[-44.639861,-7.314461],[-45.917478,-8.767684],[-47.031021,-8.98549]],[[-44.813378,-1.802112],[-44.810086,-1.801529],[-44.810086,-1.801529],[-44.813378,-1.802112]],[[-44.569338,-1.919747],[-44.566296,-1.917726],[-44.566296,-1.917726],[-44.569338,-1.919747]],[[-45.74672,-1.37203],[-45.744017,-1.374396],[-45.744017,-1.374396],[-45.74672,-1.37203]],[[-45.887523,-1.18035],[-45.877871,-1.178064],[-45.877871,-1.178064],[-45.887523,-1.18035]],[[-45.822442,-1.310566],[-45.819364,-1.297861],[-45.819364,-1.297861],[-45.822442,-1.310566]],[[-44.693307,-1.816271],[-44.692319,-1.807529],[-44.692319,-1.807529],[-44.693307,-1.816271]],[[-45.389812,-1.68975],[-45.387998,-1.69234],[-45.387998,-1.69234],[-45.389812,-1.68975]],[[-44.800955,-1.626302],[-44.790448,-1.618091],[-44.790448,-1.618091],[-44.800955,-1.626302]],[[-45.127825,-1.543968],[-45.12258,-1.546307],[-45.12258,-1.546307],[-45.127825,-1.543968]],[[-45.822986,-1.248629],[-45.822537,-1.241371],[-45.822537,-1.241371],[-45.822986,-1.248629]],[[-45.575672,-1.335734],[-45.570679,-1.329556],[-45.570679,-1.329556],[-45.575672,-1.335734]],[[-45.7995,-1.331501],[-45.798266,-1.333105],[-45.798266,-1.333105],[-45.7995,-1.331501]],[[-44.834212,-1.822641],[-44.82021,-1.822201],[-44.82021,-1.822201],[-44.834212,-1.822641]],[[-45.36857,-1.43638],[-45.367129,-1.424802],[-45.367129,-1.424802],[-45.36857,-1.43638]],[[-45.905415,-1.240259],[-45.903055,-1.259635],[-45.903055,-1.259635],[-45.905415,-1.240259]],[[-45.594841,-1.339187],[-45.588166,-1.311739],[-45.588166,-1.311739],[-45.594841,-1.339187]],[[-45.392395,-1.564463],[-45.391721,-1.543029],[-45.391721,-1.543029],[-45.392395,-1.564463]]],[[[-44.97077,-1.344386],[-44.972263,-1.283463],[-44.921642,-1.298348],[-44.858391,-1.297635],[-44.87546,-1.355308],[-44.923632,-1.374453],[-44.967149,-1.402571],[-45.01736,-1.359628],[-44.97073,-1.335455],[-44.97077,-1.344386]],[[-44.924278,-1.339253],[-44.92188,-1.34317],[-44.92188,-1.34317],[-44.924278,-1.339253]],[[-44.909326,-1.325444],[-44.907787,-1.310718],[-44.907787,-1.310718],[-44.909326,-1.325444]]],[[[-45.677976,-1.300212],[-45.656706,-1.254158],[-45.638827,-1.206518],[-45.629357,-1.142885],[-45.624395,-1.193524],[-45.62369,-1.245138],[-45.639354,-1.299194],[-45.634943,-1.35048],[-45.696054,-1.361711],[-45.672641,-1.312839],[-45.677976,-1.300212]],[[-45.659412,-1.296955],[-45.653286,-1.31105],[-45.653286,-1.31105],[-45.659412,-1.296955]]],[[[-44.801813,-1.529242],[-44.811425,-1.526729],[-44.774976,-1.484016],[-44.801813,-1.529242]]],[[[-44.774421,-1.527162],[-44.772066,-1.466328],[-44.763236,-1.477745],[-44.774421,-1.527162]]],[[[-45.685207,-1.19606],[-45.659463,-1.243246],[-45.688257,-1.200722],[-45.685207,-1.19606]]],[[[-45.541913,-1.195021],[-45.575878,-1.234105],[-45.554272,-1.187819],[-45.541913,-1.195021]]],[[[-44.617213,-1.791267],[-44.6016,-1.805163],[-44.6016,-1.805163],[-44.617213,-1.791267]]],[[[-44.728811,-1.562094],[-44.736258,-1.537635],[-44.736258,-1.537635],[-44.728811,-1.562094]]],[[[-45.798437,-1.126644],[-45.817951,-1.128572],[-45.817951,-1.128572],[-45.798437,-1.126644]]],[[[-45.794195,-1.188348],[-45.775505,-1.210167],[-45.775505,-1.210167],[-45.794195,-1.188348]]],[[[-45.55761,-1.328899],[-45.531266,-1.309718],[-45.531266,-1.309718],[-45.55761,-1.328899]]],[[[-45.090045,-1.41925],[-45.068567,-1.367478],[-45.078113,-1.370206],[-45.090045,-1.41925]]],[[[-45.096906,-1.468196],[-45.068669,-1.466032],[-45.068669,-1.466032],[-45.096906,-1.468196]]],[[[-45.036117,-1.390365],[-45.043098,-1.342634],[-45.043098,-1.342634],[-45.036117,-1.390365]]],[[[-44.749242,-1.692028],[-44.725832,-1.691997],[-44.725832,-1.691997],[-44.749242,-1.692028]]],[[[-45.685098,-1.296817],[-45.686911,-1.30891],[-45.686911,-1.30891],[-45.685098,-1.296817]]],[[[-44.46838,-2.075885],[-44.444024,-2.057457],[-44.444024,-2.057457],[-44.46838,-2.075885]]],[[[-44.480207,-2.106097],[-44.467243,-2.118755],[-44.467243,-2.118755],[-44.480207,-2.106097]]],[[[-45.397623,-1.395383],[-45.410127,-1.412508],[-45.410127,-1.412508],[-45.397623,-1.395383]]],[[[-45.071731,-1.446252],[-45.061485,-1.439578],[-45.061485,-1.439578],[-45.071731,-1.446252]]],[[[-44.722809,-1.661879],[-44.722692,-1.676865],[-44.722692,-1.676865],[-44.722809,-1.661879]]],[[[-44.445095,-2.025063],[-44.449946,-2.015712],[-44.449946,-2.015712],[-44.445095,-2.025063]]],[[[-44.622565,-1.812089],[-44.632858,-1.796316],[-44.632858,-1.796316],[-44.622565,-1.812089]]],[[[-45.089187,-1.431686],[-45.082184,-1.44137],[-45.082184,-1.44137],[-45.089187,-1.431686]]],[[[-45.515138,-1.406052],[-45.511364,-1.388808],[-45.511364,-1.388808],[-45.515138,-1.406052]]],[[[-45.047764,-1.327364],[-45.05001,-1.344179],[-45.05001,-1.344179],[-45.047764,-1.327364]]],[[[-45.790641,-1.247342],[-45.798367,-1.238415],[-45.798367,-1.238415],[-45.790641,-1.247342]]],[[[-45.002047,-1.40122],[-45.0041,-1.410896],[-45.0041,-1.410896],[-45.002047,-1.40122]]],[[[-44.613755,-1.830106],[-44.604489,-1.827009],[-44.604489,-1.827009],[-44.613755,-1.830106]]],[[[-45.626304,-1.318555],[-45.628121,-1.339402],[-45.628121,-1.339402],[-45.626304,-1.318555]]],[[[-44.830968,-1.56042],[-44.816594,-1.570823],[-44.816594,-1.570823],[-44.830968,-1.56042]]],[[[-45.561853,-1.260879],[-45.562417,-1.270919],[-45.562417,-1.270919],[-45.561853,-1.260879]]],[[[-42.750055,-2.544329],[-42.760451,-2.557712],[-42.760451,-2.557712],[-42.750055,-2.544329]]],[[[-44.00926,-2.399591],[-43.996992,-2.400908],[-43.996992,-2.400908],[-44.00926,-2.399591]]],[[[-44.611386,-1.784215],[-44.611506,-1.776948],[-44.611506,-1.776948],[-44.611386,-1.784215]]],[[[-45.640329,-1.31059],[-45.634177,-1.311944],[-45.634177,-1.311944],[-45.640329,-1.31059]]],[[[-45.653755,-1.361002],[-45.639085,-1.362132],[-45.639085,-1.362132],[-45.653755,-1.361002]]],[[[-45.641958,-1.247054],[-45.642938,-1.243445],[-45.642938,-1.243445],[-45.641958,-1.247054]]],[[[-44.016162,-2.399002],[-44.014749,-2.407207],[-44.014749,-2.407207],[-44.016162,-2.399002]]],[[[-45.139127,-1.46854],[-45.134372,-1.469393],[-45.134372,-1.469393],[-45.139127,-1.46854]]],[[[-44.775734,-1.568849],[-44.780123,-1.567823],[-44.780123,-1.567823],[-44.775734,-1.568849]]],[[[-44.875674,-1.339903],[-44.877177,-1.339477],[-44.877177,-1.339477],[-44.875674,-1.339903]]],[[[-45.040618,-1.392734],[-45.037778,-1.395123],[-45.037778,-1.395123],[-45.040618,-1.392734]]],[[[-45.135795,-1.488631],[-45.132875,-1.49049],[-45.132875,-1.49049],[-45.135795,-1.488631]]],[[[-44.45765,-2.13373],[-44.453432,-2.130236],[-44.453432,-2.130236],[-44.45765,-2.13373]]],[[[-45.815989,-1.258576],[-45.812678,-1.259956],[-45.812678,-1.259956],[-45.815989,-1.258576]]],[[[-47.031325,-8.98013],[-47.033844,-8.980878],[-47.033844,-8.980878],[-47.031325,-8.98013]]],[[[-45.1083,-1.4003],[-45.106269,-1.406017],[-45.106269,-1.406017],[-45.1083,-1.4003]]],[[[-45.11103,-1.390738],[-45.108271,-1.396702],[-45.108271,-1.396702],[-45.11103,-1.390738]]],[[[-45.558671,-1.2604],[-45.555095,-1.26079],[-45.555095,-1.26079],[-45.558671,-1.2604]]],[[[-44.756861,-1.592813],[-44.754158,-1.590024],[-44.754158,-1.590024],[-44.756861,-1.592813]]],[[[-45.76409,-1.187979],[-45.760822,-1.189251],[-45.760822,-1.189251],[-45.76409,-1.187979]]]]}},{"type":"Feature","properties":{"name":"Minas Gerais","sigla":"MG"},"geometry":{"type":"MultiPolygon","coordinates":[[[[-44.208858,-14.244127],[-42.385886,-15.074167],[-40.517886,-15.797047],[-40.213985,-17.776464],[-41.071512,-19.583916],[-42.194315,-21.239069],[-43.978381,-22.146162],[-45.851634,-22.84764],[-47.051821,-21.246124],[-48.72907,-20.149773],[-50.724629,-19.926351],[-49.283855,-18.536579],[-47.322318,-18.069225],[-47.310278,-16.067086],[-45.608125,-14.996176],[-44.208858,-14.244127]]]]}},{"type":"Feature","properties":{"name":"Mato Grosso do Sul","sigla":"MS"},"geometry":{"type":"MultiPolygon","coordinates":[[[[-53.874059,-17.921778],[-52.765404,-18.680706],[-51.510981,-19.150603],[-51.45601,-20.491663],[-52.075978,-21.714378],[-53.107751,-22.596822],[-54.023489,-23.585598],[-55.311762,-23.961936],[-55.614791,-22.655694],[-56.899112,-22.253514],[-57.865562,-21.313305],[-57.858701,-19.969935],[-57.557122,-18.239851],[-56.577862,-17.32358],[-55.263619,-17.577478],[-53.930593,-17.439003],[-53.874059,-17.921778]]],[[[-53.872177,-17.916416],[-53.874961,-17.918378],[-53.874961,-17.918378],[-53.872177,-17.916416]]]]}},{"type":"Feature","properties":{"name":"Mato Grosso","sigla":"MT"},"geometry":{"type":"MultiPolygon","coordinates":[[[[-60.360833,-13.299324],[-59.917321,-11.345953],[-61.577066,-10.226201],[-59.8565,-8.800318],[-58.201587,-7.620545],[-56.995034,-9.233453],[-54.995058,-9.505018],[-52.619493,-9.681805],[-50.224346,-9.840752],[-50.701652,-11.795626],[-50.856072,-13.795198],[-51.753199,-15.609736],[-53.096265,-17.100807],[-55.026494,-17.635877],[-57.025934,-17.69304],[-58.784852,-16.306384],[-60.499234,-15.179066],[-60.360833,-13.299324]]],[[[-60.362687,-13.296129],[-60.36443,-13.299534],[-60.36443,-13.299534],[-60.362687,-13.296129]]]]}},{"type":"Feature","properties":{"name":"Par\u00e1","sigla":"PA"},"geometry":{"type":"MultiPolygon","coordinates":[[[[-46.951454,-0.73406],[-46.665996,-2.72434],[-47.581044,-4.519572],[-48.382239,-6.379232],[-49.218261,-8.199121],[-50.842427,-9.800423],[-53.132898,-9.644462],[-55.791582,-9.440278],[-57.624226,-8.638457],[-58.469392,-6.804243],[-57.547571,-4.921233],[-56.487117,-2.632618],[-57.997476,-1.320086],[-58.895423,0.614104],[-57.384506,1.927917],[-55.428882,2.439331],[-53.714929,1.405689],[-52.683697,-0.313988],[-50.667739,0.185354],[-48.702408,-0.256793],[-46.951454,-0.73406]]],[[[-46.401363,-0.952301],[-46.416698,-0.947668],[-46.416698,-0.947668],[-46.401363,-0.952301]]],[[[-46.075076,-1.066854],[-46.072671,-1.093458],[-46.072671,-1.093458],[-46.075076,-1.066854]]],[[[-47.034094,-0.695061],[-47.010334,-0.701763],[-47.010334,-0.701763],[-47.034094,-0.695061]]],[[[-46.375097,-0.995855],[-46.383726,-1.003399],[-46.383726,-1.003399],[-46.375097,-0.995855]]],[[[-47.843037,-0.662354],[-47.833345,-0.661574],[-47.833345,-0.661574],[-47.843037,-0.662354]]],[[[-46.444238,-1.009881],[-46.435015,-1.003674],[-46.435015,-1.003674],[-46.444238,-1.009881]]],[[[-46.326679,-0.95029],[-46.318749,-0.948975],[-46.318749,-0.948975],[-46.326679,-0.95029]]],[[[-46.607768,-0.830816],[-46.600328,-0.830136],[-46.600328,-0.830136],[-46.607768,-0.830816]]],[[[-46.608153,-0.8589],[-46.600713,-0.858223],[-46.600713,-0.858223],[-46.608153,-0.8589]]],[[[-47.034742,-0.720384],[-47.04083,-0.718531],[-47.04083,-0.718531],[-47.034742,-0.720384]]],[[[-46.467967,-0.963936],[-46.468828,-0.957717],[-46.468828,-0.957717],[-46.467967,-0.963936]]],[[[-46.20639,-0.940794],[-46.198958,-0.940309],[-46.198958,-0.940309],[-46.20639,-0.940794]]],[[[-46.954245,-0.740374],[-46.949257,-0.738724],[-46.949257,-0.738724],[-46.954245,-0.740374]]],[[[-47.021708,-0.715428],[-47.018746,-0.717506],[-47.018746,-0.717506],[-47.021708,-0.715428]]],[[[-46.270059,-0.933488],[-46.267082,-0.936436],[-46.267082,-0.936436],[-46.270059,-0.933488]]]]}},{"type":"Feature","properties":{"name":"Para\u00edba","sigla":"PB"},"geometry":{"type":"MultiPolygon","coordinates":[[[[-37.226774,-6.034636],[-37.266407,-6.772237],[-36.530203,-6.826419],[-35.852618,-6.487172],[-35.112133,-6.507207],[-34.794249,-7.195245],[-35.490889,-7.450163],[-36.181816,-7.783419],[-36.803574,-8.193983],[-36.986437,-7.474782],[-37.720639,-7.581501],[-38.443302,-7.719082],[-38.713138,-7.017691],[-38.200166,-6.487893],[-37.536697,-6.155116],[-37.226774,-6.034636]]],[[[-34.861633,-6.982025],[-34.859892,-7.013618],[-34.859892,-7.013618],[-34.861633,-6.982025]]]]}},{"type":"Feature","properties":{"name":"Pernambuco","sigla":"PE"},"geometry":{"type":"MultiPolygon","coordinates":[[[[-37.176537,-7.309168],[-37.020213,-8.289262],[-36.142917,-7.781164],[-35.243274,-7.373984],[-34.948765,-8.331084],[-35.747919,-8.916723],[-36.648047,-9.31473],[-37.572708,-8.971694],[-38.551072,-8.822309],[-39.518235,-8.603511],[-40.307434,-9.27099],[-41.122819,-8.718303],[-40.537854,-7.866648],[-39.686846,-7.315188],[-38.760215,-7.655612],[-37.775964,-7.634328],[-37.176537,-7.309168]]],[[[-32.407145,-3.837767],[-32.424411,-3.878278],[-32.444637,-3.871943],[-32.407145,-3.837767]]],[[[-32.400572,-3.836927],[-32.398484,-3.830606],[-32.398484,-3.830606],[-32.400572,-3.836927]]]]}},{"type":"Feature","properties":{"name":"Piau\u00ed","sigla":"PI"},"geometry":{"type":"MultiPolygon","coordinates":[[[[-41.738679,-2.805583],[-41.245137,-3.895965],[-41.086971,-5.072944],[-40.823198,-6.25788],[-40.652355,-7.433725],[-41.111073,-8.533247],[-42.061614,-9.255595],[-43.241946,-9.411477],[-43.915348,-10.418357],[-45.016182,-10.884182],[-45.876206,-10.061906],[-45.967197,-8.875492],[-45.48953,-7.786143],[-44.463661,-7.161275],[-43.306926,-6.800495],[-43.094851,-5.61392],[-42.871646,-4.428196],[-42.209705,-3.435945],[-41.738679,-2.805583]]]]}},{"type":"Feature","properties":{"name":"Paran\u00e1","sigla":"PR"},"geometry":{"type":"MultiPolygon","coordinates":[[[[-52.064157,-22.533836],[-51.057114,-22.765573],[-50.031341,-22.908459],[-49.592133,-23.835656],[-48.987554,-24.664768],[-48.114404,-25.250194],[-48.884428,-25.980753],[-49.914829,-26.024588],[-50.908718,-26.284386],[-51.899061,-26.579655],[-52.907859,-26.359042],[-53.84151,-25.93278],[-54.4542,-25.107246],[-54.301347,-24.091249],[-53.684907,-23.205187],[-52.844348,-22.608742],[-52.064157,-22.533836]]]]}},{"type":"Feature","properties":{"name":"Rio de Janeiro","sigla":"RJ"},"geometry":{"type":"MultiPolygon","coordinates":[[[[-44.512726,-23.292935],[-44.679984,-22.52569],[-43.9976,-22.155546],[-43.236199,-22.012755],[-42.46546,-21.787278],[-42.13371,-21.085038],[-41.367701,-21.202657],[-40.986646,-21.885507],[-41.682249,-22.296429],[-42.012857,-22.997335],[-42.80425,-22.961129],[-43.567397,-23.07458],[-44.340714,-23.022142],[-44.512726,-23.292935]],[[-43.359794,-22.993309],[-43.310691,-23.006033],[-43.355471,-22.97673],[-43.405642,-22.979379],[-43.352988,-22.981057],[-43.359794,-22.993309]]],[[[-44.233217,-23.089435],[-44.190237,-23.120338],[-44.127064,-23.119558],[-44.091482,-23.166381],[-44.152294,-23.170336],[-44.192484,-23.20109],[-44.244434,-23.199737],[-44.290278,-23.178064],[-44.331491,-23.210582],[-44.373226,-23.182131],[-44.326807,-23.154363],[-44.295221,-23.114086],[-44.242441,-23.094198],[-44.233217,-23.089435]]],[[[-43.827899,-23.057298],[-43.777995,-23.060451],[-43.858795,-23.071733],[-43.955403,-23.087511],[-44.008042,-23.09261],[-43.978613,-23.051501],[-43.925152,-23.057176],[-43.864233,-23.044111],[-43.827899,-23.057298]]],[[[-43.182492,-22.781033],[-43.172105,-22.830299],[-43.221549,-22.818525],[-43.182492,-22.781033]]],[[[-43.913351,-22.93897],[-43.877675,-22.940379],[-43.877675,-22.940379],[-43.913351,-22.93897]]],[[[-43.23788,-22.861561],[-43.230926,-22.85039],[-43.230926,-22.85039],[-43.23788,-22.861561]]],[[[-43.929349,-23.006708],[-43.927727,-22.988872],[-43.927727,-22.988872],[-43.929349,-23.006708]]],[[[-44.588209,-23.20618],[-44.613089,-23.22373],[-44.613089,-23.22373],[-44.588209,-23.20618]]],[[[-44.045854,-22.999599],[-44.042448,-23.005878],[-44.042448,-23.005878],[-44.045854,-22.999599]]],[[[-44.687442,-23.164206],[-44.689511,-23.154003],[-44.689511,-23.154003],[-44.687442,-23.164206]]],[[[-41.698311,-22.410062],[-41.70541,-22.407224],[-41.70541,-22.407224],[-41.698311,-22.410062]]],[[[-44.512726,-23.292935],[-44.502444,-23.29635],[-44.502444,-23.29635],[-44.512726,-23.292935]]],[[[-43.110533,-22.761512],[-43.102821,-22.764684],[-43.102821,-22.764684],[-43.110533,-22.761512]]],[[[-43.10855,-22.758473],[-43.104397,-22.748391],[-43.104397,-22.748391],[-43.10855,-22.758473]]],[[[-43.177351,-22.895572],[-43.166958,-22.895035],[-43.166958,-22.895035],[-43.177351,-22.895572]]],[[[-44.644679,-23.073814],[-44.635569,-23.067957],[-44.635569,-23.067957],[-44.644679,-23.073814]]],[[[-43.861178,-22.952425],[-43.857964,-22.954501],[-43.857964,-22.954501],[-43.861178,-22.952425]]],[[[-41.686751,-22.401743],[-41.691219,-22.398672],[-41.691219,-22.398672],[-41.686751,-22.401743]]],[[[-44.583765,-23.20366],[-44.580463,-23.198522],[-44.580463,-23.198522],[-44.583765,-23.20366]]],[[[-44.576304,-23.185972],[-44.57284,-23.18893],[-44.57284,-23.18893],[-44.576304,-23.185972]]],[[[-43.909974,-22.983026],[-43.914255,-22.979799],[-43.914255,-22.979799],[-43.909974,-22.983026]]],[[[-44.64635,-23.226778],[-44.649005,-23.23063],[-44.649005,-23.23063],[-44.64635,-23.226778]]],[[[-41.886592,-22.776935],[-41.881836,-22.783893],[-41.881836,-22.783893],[-41.886592,-22.776935]]],[[[-44.129227,-23.035366],[-44.128785,-23.040825],[-44.128785,-23.040825],[-44.129227,-23.035366]]],[[[-43.920054,-22.941608],[-43.916081,-22.942141],[-43.916081,-22.942141],[-43.920054,-22.941608]]],[[[-43.514413,-23.065268],[-43.508372,-23.064533],[-43.508372,-23.064533],[-43.514413,-23.065268]]],[[[-43.148184,-23.059917],[-43.146738,-23.065053],[-43.146738,-23.065053],[-43.148184,-23.059917]]],[[[-44.639698,-23.228174],[-44.633615,-23.225338],[-44.633615,-23.225338],[-44.639698,-23.228174]]],[[[-43.943721,-23.023293],[-43.943681,-23.019612],[-43.943681,-23.019612],[-43.943721,-23.023293]]],[[[-44.692811,-23.215421],[-44.69085,-23.217979],[-44.69085,-23.217979],[-44.692811,-23.215421]]],[[[-43.953848,-23.004999],[-43.951708,-23.008218],[-43.951708,-23.008218],[-43.953848,-23.004999]]],[[[-43.207898,-23.040543],[-43.202163,-23.037408],[-43.202163,-23.037408],[-43.207898,-23.040543]]],[[[-44.672432,-23.099449],[-44.669117,-23.097726],[-44.669117,-23.097726],[-44.672432,-23.099449]]],[[[-43.953679,-23.025037],[-43.950736,-23.024879],[-43.950736,-23.024879],[-43.953679,-23.025037]]],[[[-43.861226,-22.946858],[-43.863235,-22.949314],[-43.863235,-22.949314],[-43.861226,-22.946858]]],[[[-44.675081,-23.111113],[-44.674697,-23.11399],[-44.674697,-23.11399],[-44.675081,-23.111113]]]]}},{"type":"Feature","properties":{"name":"Rio Grande do Norte","sigla":"RN"},"geometry":{"type":"MultiPolygon","coordinates":[[[[-37.151721,-4.935362],[-36.628162,-5.088753],[-36.077869,-5.065079],[-35.531454,-5.143936],[-35.226337,-5.591369],[-35.098942,-6.126781],[-35.51187,-6.476413],[-36.050801,-6.431804],[-36.546989,-6.694754],[-37.119652,-6.766896],[-37.251122,-6.22607],[-37.79413,-6.288644],[-38.303803,-6.488539],[-38.191982,-5.959179],[-37.904396,-5.500761],[-37.639945,-4.926029],[-37.151721,-4.935362]]]]}},{"type":"Feature","properties":{"name":"Rond\u00f4nia","sigla":"RO"},"geometry":{"type":"MultiPolygon","coordinates":[[[[-66.458886,-9.87524],[-65.346498,-9.315899],[-64.148942,-8.958555],[-62.866087,-7.975496],[-61.989687,-8.87228],[-61.555066,-10.037941],[-60.460179,-10.989461],[-59.900699,-12.115042],[-60.351526,-13.275389],[-61.575491,-13.51332],[-62.712505,-13.003828],[-63.828349,-12.456575],[-64.987853,-12.00856],[-65.333447,-10.811825],[-66.039677,-9.78659],[-66.458886,-9.87524]]],[[[-66.458886,-9.87524],[-66.456774,-9.878479],[-66.456774,-9.878479],[-66.458886,-9.87524]]]]}},{"type":"Feature","properties":{"name":"Roraima","sigla":"RR"},"geometry":{"type":"MultiPolygon","coordinates":[[[[-59.916352,3.145915],[-59.751394,1.88906],[-58.895423,0.614104],[-60.072721,0.150234],[-61.154701,-0.505033],[-62.364431,-0.876976],[-62.455029,0.39203],[-62.79582,1.63098],[-63.815539,2.402708],[-64.243735,3.62533],[-62.977532,3.610662],[-61.835957,4.160673],[-60.726941,4.774821],[-59.62974,4.14025],[-59.916352,3.145915]]]]}},{"type":"Feature","properties":{"name":"Rio Grande do Sul","sigla":"RS"},"geometry":{"type":"MultiPolygon","coordinates":[[[[-52.043669,-31.57374],[-52.789487,-33.296816],[-54.038904,-31.897293],[-55.582385,-30.835178],[-57.382505,-30.288135],[-56.262493,-28.777529],[-54.830815,-27.566261],[-53.017974,-27.090205],[-51.246458,-27.760654],[-50.021115,-29.178459],[-50.66521,-30.959707],[-52.043669,-31.57374]]],[[[-51.295483,-30.750499],[-51.309166,-30.787278],[-51.280603,-30.801143],[-51.295483,-30.750499]]],[[[-50.098154,-29.23608],[-50.087578,-29.222485],[-50.087578,-29.222485],[-50.098154,-29.23608]]],[[[-51.148111,-30.472971],[-51.152054,-30.499744],[-51.152054,-30.499744],[-51.148111,-30.472971]]],[[[-49.95607,-29.06698],[-49.94202,-29.064257],[-49.94202,-29.064257],[-49.95607,-29.06698]]],[[[-51.294501,-30.053588],[-51.268429,-30.055382],[-51.268429,-30.055382],[-51.294501,-30.053588]]],[[[-52.101693,-31.801463],[-52.11047,-31.792739],[-52.11047,-31.792739],[-52.101693,-31.801463]]],[[[-53.418556,-33.129563],[-53.410424,-33.107686],[-53.410424,-33.107686],[-53.418556,-33.129563]]],[[[-49.968549,-29.120472],[-49.963833,-29.114166],[-49.963833,-29.114166],[-49.968549,-29.120472]]],[[[-51.464724,-31.549706],[-51.463926,-31.55728],[-51.463926,-31.55728],[-51.464724,-31.549706]]],[[[-51.169024,-30.264125],[-51.163465,-30.266056],[-51.163465,-30.266056],[-51.169024,-30.264125]]],[[[-51.104953,-30.259277],[-51.100292,-30.258867],[-51.100292,-30.258867],[-51.104953,-30.259277]]],[[[-52.044462,-31.567576],[-52.046969,-31.571849],[-52.046969,-31.571849],[-52.044462,-31.567576]]],[[[-51.191486,-30.234579],[-51.190905,-30.238349],[-51.190905,-30.238349],[-51.191486,-30.234579]]]]}},{"type":"Feature","properties":{"name":"Santa Catarina","sigla":"SC"},"geometry":{"type":"MultiPolygon","coordinates":[[[[-53.720454,-26.559912],[-52.646738,-26.379448],[-51.58395,-26.590533],[-50.627919,-26.062632],[-49.560681,-26.23481],[-48.626035,-26.784133],[-48.601983,-27.866992],[-49.183666,-28.799833],[-50.215571,-28.456662],[-51.098419,-27.828397],[-52.072566,-27.337976],[-53.141067,-27.169868],[-53.720454,-26.559912]]],[[[-48.41035,-27.38943],[-48.373944,-27.443358],[-48.41339,-27.520753],[-48.419273,-27.583295],[-48.465399,-27.648547],[-48.500638,-27.714154],[-48.48739,-27.777877],[-48.538814,-27.814219],[-48.575919,-27.764775],[-48.55264,-27.701643],[-48.52562,-27.632575],[-48.536332,-27.570717],[-48.517247,-27.51129],[-48.536127,-27.451499],[-48.476479,-27.429296],[-48.431076,-27.387525],[-48.41035,-27.38943]]],[[[-48.565368,-27.477238],[-48.563643,-27.479519],[-48.563643,-27.479519],[-48.565368,-27.477238]]]]}},{"type":"Feature","properties":{"name":"Sergipe","sigla":"SE"},"geometry":{"type":"MultiPolygon","coordinates":[[[[-37.960063,-9.532816],[-37.670446,-9.656221],[-37.365349,-9.785666],[-37.075107,-9.965854],[-36.846358,-10.179296],[-36.568928,-10.325403],[-36.680348,-10.633409],[-36.929376,-10.823],[-37.117645,-11.086267],[-37.292703,-11.344587],[-37.552582,-11.546875],[-37.857263,-11.469538],[-38.010998,-11.188797],[-38.200293,-10.938164],[-37.844845,-10.702308],[-37.840228,-10.389473],[-37.820577,-10.056871],[-38.016749,-9.786997],[-37.960063,-9.532816]]]]}},{"type":"Feature","properties":{"name":"S\u00e3o Paulo","sigla":"SP"},"geometry":{"type":"MultiPolygon","coordinates":[[[[-46.137723,-23.858882],[-47.360534,-24.64077],[-48.787724,-24.680686],[-49.62372,-23.522807],[-50.890392,-22.795326],[-52.369185,-22.628503],[-51.848013,-21.266164],[-51.001363,-20.095808],[-49.581674,-19.909571],[-48.167274,-20.10334],[-47.135319,-21.089119],[-46.636275,-22.429173],[-45.211909,-22.56237],[-45.977954,-23.786961],[-46.137723,-23.858882]]],[[[-45.320935,-23.914938],[-45.373915,-23.929939],[-45.427374,-23.940393],[-45.461127,-23.895583],[-45.424019,-23.859219],[-45.38552,-23.825556],[-45.358379,-23.779948],[-45.341001,-23.727052],[-45.290416,-23.735591],[-45.245421,-23.761335],[-45.241687,-23.811452],[-45.285007,-23.849988],[-45.251447,-23.898578],[-45.234135,-23.947197],[-45.285421,-23.941492],[-45.320935,-23.914938]]],[[[-45.077848,-23.535286],[-45.075577,-23.560975],[-45.075577,-23.560975],[-45.077848,-23.535286]]],[[[-45.139775,-23.799866],[-45.15639,-23.812895],[-45.15639,-23.812895],[-45.139775,-23.799866]]],[[[-45.163376,-23.566709],[-45.150058,-23.569541],[-45.150058,-23.569541],[-45.163376,-23.566709]]],[[[-45.01966,-23.758692],[-45.011856,-23.762092],[-45.011856,-23.762092],[-45.01966,-23.758692]]],[[[-45.779012,-23.867611],[-45.784601,-23.858372],[-45.784601,-23.858372],[-45.779012,-23.867611]]],[[[-45.293576,-23.596097],[-45.282815,-23.601086],[-45.282815,-23.601086],[-45.293576,-23.596097]]],[[[-45.018595,-23.754241],[-45.01844,-23.743987],[-45.01844,-23.743987],[-45.018595,-23.754241]]],[[[-45.725934,-23.800637],[-45.717449,-23.804154],[-45.717449,-23.804154],[-45.725934,-23.800637]]],[[[-45.526033,-23.849328],[-45.522206,-23.854422],[-45.522206,-23.854422],[-45.526033,-23.849328]]],[[[-46.906652,-24.389684],[-46.903396,-24.396626],[-46.903396,-24.396626],[-46.906652,-24.389684]]],[[[-46.909409,-24.373831],[-46.90859,-24.380528],[-46.90859,-24.380528],[-46.909409,-24.373831]]],[[[-45.033318,-23.548712],[-45.024654,-23.54396],[-45.024654,-23.54396],[-45.033318,-23.548712]]],[[[-44.851379,-23.399177],[-44.855043,-23.398048],[-44.855043,-23.398048],[-44.851379,-23.399177]]],[[[-44.948537,-23.38621],[-44.940537,-23.383518],[-44.940537,-23.383518],[-44.948537,-23.38621]]],[[[-46.979876,-24.37096],[-46.974882,-24.369621],[-46.974882,-24.369621],[-46.979876,-24.37096]]],[[[-47.913506,-25.166847],[-47.908408,-25.166948],[-47.908408,-25.166948],[-47.913506,-25.166847]]],[[[-45.228607,-23.813211],[-45.228225,-23.817086],[-45.228225,-23.817086],[-45.228607,-23.813211]]],[[[-45.325172,-23.915907],[-45.324072,-23.918626],[-45.324072,-23.918626],[-45.325172,-23.915907]]],[[[-45.714043,-23.790181],[-45.709084,-23.788211],[-45.709084,-23.788211],[-45.714043,-23.790181]]],[[[-45.276823,-23.853116],[-45.277006,-23.852336],[-45.277006,-23.852336],[-45.276823,-23.853116]]],[[[-45.297189,-23.920585],[-45.294481,-23.918756],[-45.294481,-23.918756],[-45.297189,-23.920585]]],[[[-45.156356,-23.830774],[-45.153078,-23.831627],[-45.153078,-23.831627],[-45.156356,-23.830774]]],[[[-45.671725,-23.804677],[-45.668829,-23.804942],[-45.668829,-23.804942],[-45.671725,-23.804677]]]]}},{"type":"Feature","properties":{"name":"Tocantins","sigla":"TO"},"geometry":{"type":"MultiPolygon","coordinates":[[[[-47.032958,-8.982325],[-46.194119,-10.182201],[-46.082769,-11.635703],[-46.750177,-12.968724],[-48.164957,-13.305356],[-49.815142,-13.026272],[-50.685839,-11.858579],[-50.473261,-10.404499],[-49.859743,-9.079344],[-49.149708,-7.809831],[-48.612713,-6.453351],[-47.528792,-7.432511],[-46.917522,-8.750887],[-47.032958,-8.982325]]]]}},{"type":"Feature","properties":{"name":"Distrito Federal","sigla":"DF"},"geometry":{"type":"MultiPolygon","coordinates":[[[[-47.308609,-16.035491],[-47.462597,-16.049791],[-47.617245,-16.049947],[-47.814354,-16.050207],[-47.98246,-16.051024],[-48.161451,-16.050788],[-48.260652,-15.966636],[-48.282417,-15.829079],[-48.207041,-15.717894],[-48.199167,-15.546251],[-48.052786,-15.499746],[-47.618697,-15.5003],[-47.465808,-15.5001],[-47.356953,-15.580874],[-47.311927,-15.706718],[-47.36551,-15.827737],[-47.371787,-15.960468],[-47.308609,-16.035491]]]]}}]}